NORAD_CAT_ID,OBJECT_NAME,OBJECT_TYPE,EPOCH,MEAN_MOTION,ECCENTRICITY,INCLINATION,RA_OF_ASC_NODE,ARG_OF_PERICENTER,MEAN_ANOMALY,BSTAR,MEAN_MOTION_DOT,MEAN_MOTION_DDOT,TLE_LINE0,TLE_LINE1,TLE_LINE2,SEMIMAJOR_AXIS,PERIOD,APOGEE,PERIGEE,DECAYED
53410.0,STARLINK-4492,PAYLOAD,2023-09-27 23:57:57,15.08835939,0.0001812,53.2158,166.0566,67.4905,292.6279,-0.00013745,-2.475e-05,0.0,0 STARLINK-4492,1 53410U 22097Y   23270.99858364 -.00002475  00000-0 -13745-3 0  9992,2 53410  53.2158 166.0566 0001812  67.4905 292.6279 15.08835939 63739,6917.893,95.438,541.011,538.504,0.0
53410.0,STARLINK-4492,PAYLOAD,2023-09-28 22:13:22,15.0884378,0.0001643,53.216,161.8933,84.1056,276.0124,0.00041989,6.402e-05,0.0,0 STARLINK-4492,1 53410U 22097Y   23271.92594932  .00006402  00000-0  41989-3 0  9997,2 53410  53.2160 161.8933 0001643  84.1056 276.0124 15.08843780 63871,6917.869,95.437,540.87,538.597,0.0
53410.0,STARLINK-4492,PAYLOAD,2023-09-29 23:39:31,15.08853939,0.0001449,53.2154,157.1354,91.6507,268.4651,0.00025636,3.796e-05,0.0,0 STARLINK-4492,1 53410U 22097Y   23272.98578102  .00003796  00000-0  25636-3 0  9999,2 53410  53.2154 157.1354 0001449  91.6507 268.4651 15.08853939 63548,6917.838,95.437,540.705,538.7,0.0
53410.0,STARLINK-4492,PAYLOAD,2023-09-30 09:11:50,15.08842396,0.0001518,53.2162,155.3511,96.9783,263.1382,-1.8238e-05,-5.78e-06,0.0,0 STARLINK-4492,1 53410U 22097Y   23273.38322245 -.00000578  00000-0 -18238-4 0  9997,2 53410  53.2162 155.3511 0001518  96.9783 263.1382 15.08842396 63608,6917.873,95.437,540.788,538.688,0.0
53410.0,STARLINK-4492,PAYLOAD,2023-10-01 09:02:37,15.08845702,0.0001516,53.2144,150.8902,95.3833,264.7332,0.00019274,2.781e-05,0.0,0 STARLINK-4492,1 53410U 22097Y   23274.37682504  .00002781  00000-0  19274-3 0  9990,2 53410  53.2144 150.8902 0001516  95.3833 264.7332 15.08845702 64246,6917.863,95.437,540.777,538.679,0.0
53410.0,STARLINK-4492,PAYLOAD,2023-10-01 15:24:10,15.08845183,0.0001398,53.2138,149.7033,94.4527,265.6625,0.00026384,3.914e-05,0.0,0 STARLINK-4492,1 53410U 22097Y   23274.64178549  .00003914  00000-0  26384-3 0  9998,2 53410  53.2138 149.7033 0001398  94.4527 265.6625 15.08845183 63796,6917.865,95.437,540.697,538.762,0.0
53410.0,STARLINK-4492,PAYLOAD,2023-10-01 20:10:19,15.08847539,0.0001368,53.2141,148.8108,93.8181,266.2967,0.00034987,5.286e-05,0.0,0 STARLINK-4492,1 53410U 22097Y   23274.84050537  .00005286  00000-0  34987-3 0  9998,2 53410  53.2141 148.8108 0001368  93.8181 266.2967 15.08847539 64311,6917.857,95.437,540.669,538.776,0.0
53410.0,STARLINK-4492,PAYLOAD,2023-10-02 21:36:29,15.08847657,0.0001419,53.2135,144.0507,96.8756,263.2398,0.00045074,6.894e-05,0.0,0 STARLINK-4492,1 53410U 22097Y   23275.90034495  .00006894  00000-0  45074-3 0  9996,2 53410  53.2135 144.0507 0001419  96.8756 263.2398 15.08847657 63981,6917.857,95.437,540.704,538.74,0.0
53410.0,STARLINK-4492,PAYLOAD,2023-10-03 08:44:11,15.0884428,0.0001317,53.2136,141.9708,84.3374,275.7768,0.00022805,3.344e-05,0.0,0 STARLINK-4492,1 53410U 22097Y   23276.36402517  .00003344  00000-0  22805-3 0  9995,2 53410  53.2136 141.9708 0001317  84.3374 275.7768 15.08844280 64053,6917.867,95.437,540.643,538.821,0.0
53410.0,STARLINK-4492,PAYLOAD,2023-10-03 19:51:53,15.08839191,0.0001241,53.2148,139.886,110.8989,249.2136,0.00012496,1.701e-05,0.0,0 STARLINK-4492,1 53410U 22097Y   23276.82770723  .00001701  00000-0  12496-3 0  9993,2 53410  53.2148 139.8860 0001241 110.8989 249.2136 15.08839191 64122,6917.883,95.438,540.606,538.889,0.0
53410.0,STARLINK-4492,PAYLOAD,2023-10-03 21:27:16,15.08843055,0.0001365,53.2145,139.59,107.4069,252.7072,0.00010298,1.352e-05,0.0,0 STARLINK-4492,1 53410U 22097Y   23276.89394595  .00001352  00000-0  10298-3 0  9999,2 53410  53.2145 139.5900 0001365 107.4069 252.7072 15.08843055 64626,6917.871,95.437,540.68,538.792,0.0
53410.0,STARLINK-4492,PAYLOAD,2023-10-04 21:18:03,15.08851247,0.0001343,53.2141,135.1309,91.8881,268.2265,0.00032291,4.856e-05,0.0,0 STARLINK-4492,1 53410U 22097Y   23277.88754441  .00004856  00000-0  32291-3 0  9998,2 53410  53.2141 135.1309 0001343  91.8881 268.2265 15.08851247 64775,6917.846,95.437,540.64,538.782,0.0
53410.0,STARLINK-4492,PAYLOAD,2023-10-05 00:28:49,15.08855249,0.000136,53.2143,134.5357,91.6578,268.4569,0.00038973,5.923e-05,0.0,0 STARLINK-4492,1 53410U 22097Y   23278.02002244  .00005923  00000-0  38973-3 0  9991,2 53410  53.2143 134.5357 0001360  91.6578 268.4569 15.08855249 64307,6917.834,95.437,540.64,538.758,0.0
53410.0,STARLINK-4492,PAYLOAD,2023-10-05 21:08:51,15.08840564,0.0001327,53.2155,130.6687,92.8353,267.2791,0.0001245,1.694e-05,0.0,0 STARLINK-4492,1 53410U 22097Y   23278.88114701  .00001694  00000-0  12450-3 0  9990,2 53410  53.2155 130.6687 0001327  92.8353 267.2791 15.08840564 64432,6917.879,95.438,540.662,538.826,0.0
53410.0,STARLINK-4492,PAYLOAD,2023-10-06 20:59:38,15.08836443,0.0001288,53.2149,126.2101,92.9458,267.1681,-5.7558e-05,-1.204e-05,0.0,0 STARLINK-4492,1 53410U 22097Y   23279.87475231 -.00001204  00000-0 -57558-4 0  9996,2 53410  53.2149 126.2101 0001288  92.9458 267.1681 15.08836443 64584,6917.891,95.438,540.647,538.865,0.0
53410.0,STARLINK-4492,PAYLOAD,2023-10-07 12:53:30,15.08836147,0.0001305,53.2151,123.2358,93.6583,266.4558,0.00012001,1.622e-05,0.0,0 STARLINK-4492,1 53410U 22097Y   23280.53715450  .00001622  00000-0  12001-3 0  9996,2 53410  53.2151 123.2358 0001305  93.6583 266.4558 15.08836147 65177,6917.892,95.438,540.66,538.854,0.0
53410.0,STARLINK-4492,PAYLOAD,2023-10-07 20:50:25,15.08846642,0.0001308,53.2148,121.7495,95.3507,264.7634,0.00022555,3.304e-05,0.0,0 STARLINK-4492,1 53410U 22097Y   23280.86834926  .00003304  00000-0  22555-3 0  9996,2 53410  53.2148 121.7495 0001308  95.3507 264.7634 15.08846642 64734,6917.86,95.437,540.63,538.82,0.0
53410.0,STARLINK-4492,PAYLOAD,2023-10-08 06:22:44,15.08841899,0.0001275,53.2151,119.9656,91.6137,268.5002,0.00011409,1.528e-05,0.0,0 STARLINK-4492,1 53410U 22097Y   23281.26579107  .00001528  00000-0  11409-3 0  9990,2 53410  53.2151 119.9656 0001275  91.6137 268.5002 15.08841899 64793,6917.875,95.437,540.622,538.858,0.0
53410.0,STARLINK-4492,PAYLOAD,2023-10-08 20:41:12,15.08841994,0.0001333,53.2158,117.2878,84.1265,275.9879,0.00016405,2.324e-05,0.0,0 STARLINK-4492,1 53410U 22097Y   23281.86195314  .00002324  00000-0  16405-3 0  9996,2 53410  53.2158 117.2878 0001333  84.1265 275.9879 15.08841994 65376,6917.874,95.437,540.661,538.817,0.0
53410.0,STARLINK-4492,PAYLOAD,2023-10-09 06:13:31,15.08837698,0.0001332,53.2159,115.505,94.3212,265.7932,6.4391e-05,7.37e-06,0.0,0 STARLINK-4492,1 53410U 22097Y   23282.25939788  .00000737  00000-0  64391-4 0  9995,2 53410  53.2159 115.5050 0001332  94.3212 265.7932 15.08837698 64949,6917.887,95.438,540.674,538.831,0.0
53410.0,STARLINK-4492,PAYLOAD,2023-10-09 20:31:59,15.08846039,0.0001389,53.2156,112.8275,90.9299,269.1852,4.8369e-05,4.82e-06,0.0,0 STARLINK-4492,1 53410U 22097Y   23282.85555051  .00000482  00000-0  48369-4 0  9992,2 53410  53.2156 112.8275 0001389  90.9299 269.1852 15.08846039 65033,6917.862,95.437,540.688,538.766,0.0
53410.0,STARLINK-4492,PAYLOAD,2023-10-10 06:04:18,15.08838448,0.0001668,53.2148,111.0441,83.0712,277.047,2.9477e-05,1.81e-06,0.0,0 STARLINK-4492,1 53410U 22097Y   23283.25299584  .00000181  00000-0  29477-4 0  9998,2 53410  53.2148 111.0441 0001668  83.0712 277.0470 15.08838448 65098,6917.885,95.438,540.904,538.596,0.0
53410.0,STARLINK-4492,PAYLOAD,2023-10-10 18:47:23,15.08846359,0.0001389,53.2152,108.6629,89.385,270.7301,0.00019761,2.859e-05,0.0,0 STARLINK-4492,1 53410U 22097Y   23283.78291159  .00002859  00000-0  19761-3 0  9994,2 53410  53.2152 108.6629 0001389  89.3850 270.7301 15.08846359 65661,6917.861,95.437,540.687,538.765,0.0
53410.0,STARLINK-4492,PAYLOAD,2023-10-10 21:58:09,15.08849255,0.0001406,53.2152,108.0688,80.3058,279.8093,0.0002638,3.914e-05,0.0,0 STARLINK-4492,1 53410U 22097Y   23283.91538954  .00003914  00000-0  26380-3 0  9994,2 53410  53.2152 108.0688 0001406  80.3058 279.8093 15.08849255 65195,6917.852,95.437,540.69,538.744,0.0
53410.0,STARLINK-4492,PAYLOAD,2023-10-11 12:16:38,15.08839579,0.0001794,53.214,105.3904,97.4989,262.6207,0.00015183,2.129e-05,0.0,0 STARLINK-4492,1 53410U 22097Y   23284.51155562  .00002129  00000-0  15183-3 0  9997,2 53410  53.2140 105.3904 0001794  97.4989 262.6207 15.08839579 65280,6917.882,95.438,540.988,538.506,0.0
53410.0,STARLINK-4492,PAYLOAD,2023-10-12 12:07:25,15.08844584,0.0001467,53.2157,100.9328,90.0823,270.0337,0.00025097,3.709e-05,0.0,0 STARLINK-4492,1 53410U 22097Y   23285.50515571  .00003709  00000-0  25097-3 0  9997,2 53410  53.2157 100.9328 0001467  90.0823 270.0337 15.08844584 65922,6917.866,95.437,540.746,538.717,0.0
53410.0,STARLINK-4492,PAYLOAD,2023-10-12 18:28:57,15.08850385,0.0001398,53.2152,99.7449,81.8677,278.2474,0.00028894,4.315e-05,0.0,0 STARLINK-4492,1 53410U 22097Y   23285.77011334  .00004315  00000-0  28894-3 0  9996,2 53410  53.2152  99.7449 0001398  81.8677 278.2474 15.08850385 65472,6917.849,95.437,540.681,538.747,0.0
53410.0,STARLINK-4492,PAYLOAD,2023-10-13 11:58:12,15.08842172,0.0001407,53.2153,96.4731,81.9228,278.1923,0.00017628,2.519e-05,0.0,0 STARLINK-4492,1 53410U 22097Y   23286.49875624  .00002519  00000-0  17628-3 0  9993,2 53410  53.2153  96.4731 0001407  81.9228 278.1923 15.08842172 65580,6917.874,95.437,540.712,538.765,0.0
53410.0,STARLINK-4492,PAYLOAD,2023-10-13 18:19:44,15.08848287,0.0001366,53.2151,95.2821,80.0257,280.0889,0.00025544,3.781e-05,0.0,0 STARLINK-4492,1 53410U 22097Y   23286.76371328  .00003781  00000-0  25544-3 0  9993,2 53410  53.2151  95.2821 0001366  80.0257 280.0889 15.08848287 66117,6917.855,95.437,540.665,538.775,0.0
53410.0,STARLINK-4492,PAYLOAD,2023-10-14 11:48:59,15.08836669,0.0001502,53.2168,92.013,86.0867,274.0297,-6.8074e-05,-1.371e-05,0.0,0 STARLINK-4492,1 53410U 22097Y   23287.49235593 -.00001371  00000-0 -68074-4 0  9998,2 53410  53.2168  92.0130 0001502  86.0867 274.0297 15.08836669 66227,6917.891,95.438,540.795,538.717,0.0
